start=new Date('2021-10-21T00:00:00.000Z').valueOf();
sats=[{"MEAN_MOTION_DDOT":"0.0000000000000","ECCENTRICITY":"0.00016560","ELEMENT_SET_NO":"999","EPOCH":"2021-10-20T20:51:52.394688","APOAPSIS":"544.233","OBJECT_NAME":"STARLINK-1034","NORAD_CAT_ID":"44739","OBJECT_TYPE":"PAYLOAD","MEAN_ELEMENT_THEORY":"SGP4","FILE":"3175135","LAUNCH_DATE":"2019-11-11","RA_OF_ASC_NODE":"190.5105","TIME_SYSTEM":"UTC","CLASSIFICATION_TYPE":"U","REV_AT_EPOCH":"10719","SITE":"AFETR","MEAN_ANOMALY":"284.2830","TLE_LINE1":"1 44739U 19074AC  21293.86935642  .00006062  00000-0  41049-3 0  9993","BSTAR":"0.00041049000000","RCS_SIZE":"LARGE","EPHEMERIS_TYPE":"0","GP_ID":"187753646","PERIAPSIS":"541.941","MEAN_MOTION_DOT":"0.00006062","COUNTRY_CODE":"US","ARG_OF_PERICENTER":"75.8343","SEMIMAJOR_AXIS":"6921.222","OBJECT_ID":"2019-074AC","MEAN_MOTION":"15.07747494","CENTER_NAME":"EARTH","PERIOD":"95.507","INCLINATION":"52.9987","DECAY_DATE":null,"REF_FRAME":"TEME","TLE_LINE2":"2 44739  52.9987 190.5105 0001656  75.8343 284.2830 15.07747494107191"},{"ELEMENT_SET_NO":"999","ECCENTRICITY":"0.00019110","MEAN_MOTION_DDOT":"0.0000000000000","APOAPSIS":"548.583","OBJECT_NAME":"STARLINK-1035","EPOCH":"2021-10-20T21:14:18.779712","MEAN_ELEMENT_THEORY":"SGP4","FILE":"3175135","OBJECT_TYPE":"PAYLOAD","NORAD_CAT_ID":"44740","REV_AT_EPOCH":"10719","CLASSIFICATION_TYPE":"U","SITE":"AFETR","TIME_SYSTEM":"UTC","RA_OF_ASC_NODE":"192.9093","LAUNCH_DATE":"2019-11-11","BSTAR":"-0.00010838000000","RCS_SIZE":"LARGE","MEAN_ANOMALY":"282.6063","TLE_LINE1":"1 44740U 19074AD  21293.88493958 -.00001895  00000-0 -10838-3 0  9999","MEAN_MOTION_DOT":"-0.00001895","COUNTRY_CODE":"US","PERIAPSIS":"545.936","GP_ID":"187753896","EPHEMERIS_TYPE":"0","SEMIMAJOR_AXIS":"6925.395","ARG_OF_PERICENTER":"77.5140","PERIOD":"95.593","CENTER_NAME":"EARTH","OBJECT_ID":"2019-074AD","MEAN_MOTION":"15.06384947","DECAY_DATE":null,"INCLINATION":"53.0543","TLE_LINE2":"2 44740  53.0543 192.9093 0001911  77.5140 282.6063 15.06384947107192","REF_FRAME":"TEME"},{"MEAN_ELEMENT_THEORY":"SGP4","FILE":"3175135","OBJECT_TYPE":"PAYLOAD","NORAD_CAT_ID":"44741","ELEMENT_SET_NO":"999","MEAN_MOTION_DDOT":"0.0000000000000","ECCENTRICITY":"0.00015960","OBJECT_NAME":"STARLINK-1036","APOAPSIS":"548.330","EPOCH":"2021-10-20T21:30:12.910464","BSTAR":"0.00000733130000","RCS_SIZE":"LARGE","MEAN_ANOMALY":"281.6473","TLE_LINE1":"1 44741U 19074AE  21293.89598276 -.00000172  00000-0  73313-5 0  9995","CLASSIFICATION_TYPE":"U","REV_AT_EPOCH":"10719","SITE":"AFETR","TIME_SYSTEM":"UTC","LAUNCH_DATE":"2019-11-11","RA_OF_ASC_NODE":"192.8644","SEMIMAJOR_AXIS":"6925.360","ARG_OF_PERICENTER":"78.4695","MEAN_MOTION_DOT":"-0.00000172","COUNTRY_CODE":"US","PERIAPSIS":"546.119","EPHEMERIS_TYPE":"0","GP_ID":"187755148","DECAY_DATE":null,"INCLINATION":"53.0537","TLE_LINE2":"2 44741  53.0537 192.8644 0001596  78.4695 281.6473 15.06396393107193","REF_FRAME":"TEME","PERIOD":"95.592","CENTER_NAME":"EARTH","OBJECT_ID":"2019-074AE","MEAN_MOTION":"15.06396393"},{"MEAN_ELEMENT_THEORY":"SGP4","FILE":"3175135","OBJECT_TYPE":"PAYLOAD","NORAD_CAT_ID":"44742","ELEMENT_SET_NO":"999","ECCENTRICITY":"0.00026970","MEAN_MOTION_DDOT":"0.0000000000000","OBJECT_NAME":"STARLINK-1037","APOAPSIS":"541.599","EPOCH":"2021-10-20T20:24:06.542208","BSTAR":"0.00024966000000","RCS_SIZE":"LARGE","MEAN_ANOMALY":"270.9725","TLE_LINE1":"1 44742U 19074AF  21293.85007572  .00003688  00000-0  24966-3 0  9998","REV_AT_EPOCH":"10724","CLASSIFICATION_TYPE":"U","SITE":"AFETR","TIME_SYSTEM":"UTC","LAUNCH_DATE":"2019-11-11","RA_OF_ASC_NODE":"187.1577","SEMIMAJOR_AXIS":"6917.868","ARG_OF_PERICENTER":"89.1573","MEAN_MOTION_DOT":"0.00003688","COUNTRY_CODE":"US","PERIAPSIS":"537.867","GP_ID":"187755388","EPHEMERIS_TYPE":"0","DECAY_DATE":null,"INCLINATION":"52.9971","TLE_LINE2":"2 44742  52.9971 187.1577 0002697  89.1573 270.9725 15.08844086107249","REF_FRAME":"TEME","CENTER_NAME":"EARTH","PERIOD":"95.437","OBJECT_ID":"2019-074AF","MEAN_MOTION":"15.08844086"},{"SEMIMAJOR_AXIS":"6925.362","ARG_OF_PERICENTER":"72.3864","MEAN_MOTION_DOT":"-0.00001493","COUNTRY_CODE":"US","EPHEMERIS_TYPE":"0","GP_ID":"187714731","PERIAPSIS":"545.980","INCLINATION":"53.0529","DECAY_DATE":null,"REF_FRAME":"TEME","TLE_LINE2":"2 44743  53.0529 214.7290 0001801  72.3864 287.7321 15.06395623106943","CENTER_NAME":"EARTH","PERIOD":"95.592","OBJECT_ID":"2019-074AG","MEAN_MOTION":"15.06395623","MEAN_ELEMENT_THEORY":"SGP4","FILE":"3174382","NORAD_CAT_ID":"44743","OBJECT_TYPE":"PAYLOAD","ECCENTRICITY":"0.00018010","MEAN_MOTION_DDOT":"0.0000000000000","ELEMENT_SET_NO":"999","EPOCH":"2021-10-20T11:33:05.269536","APOAPSIS":"548.474","OBJECT_NAME":"STARLINK-1038","BSTAR":"-0.00008136500000","RCS_SIZE":"LARGE","MEAN_ANOMALY":"287.7321","TLE_LINE1":"1 44743U 19074AG  21293.48131099 -.00001493  00000-0 -81365-4 0  9991","REV_AT_EPOCH":"10694","CLASSIFICATION_TYPE":"U","SITE":"AFETR","LAUNCH_DATE":"2019-11-11","RA_OF_ASC_NODE":"214.7290","TIME_SYSTEM":"UTC"},{"TIME_SYSTEM":"UTC","LAUNCH_DATE":"2019-11-11","RA_OF_ASC_NODE":"213.1880","REV_AT_EPOCH":"10690","CLASSIFICATION_TYPE":"U","SITE":"AFETR","MEAN_ANOMALY":"290.7771","TLE_LINE1":"1 44744U 19074AH  21293.82412037 -.00001921  00000-0 -11010-3 0  9999","BSTAR":"-0.00011010000000","RCS_SIZE":"LARGE","ELEMENT_SET_NO":"999","MEAN_MOTION_DDOT":"0.0000000000000","ECCENTRICITY":"0.00017710","APOAPSIS":"548.479","OBJECT_NAME":"STARLINK-1039","EPOCH":"2021-10-20T19:46:43.999968","OBJECT_TYPE":"PAYLOAD","NORAD_CAT_ID":"44744","MEAN_ELEMENT_THEORY":"SGP4","FILE":"3175135","OBJECT_ID":"2019-074AH","MEAN_MOTION":"15.06387158","PERIOD":"95.593","CENTER_NAME":"EARTH","DECAY_DATE":null,"INCLINATION":"53.0539","TLE_LINE2":"2 44744  53.0539 213.1880 0001771  69.3408 290.7771 15.06387158106902","REF_FRAME":"TEME","PERIAPSIS":"546.026","GP_ID":"187754397","EPHEMERIS_TYPE":"0","MEAN_MOTION_DOT":"-0.00001921","COUNTRY_CODE":"US","ARG_OF_PERICENTER":"69.3408","SEMIMAJOR_AXIS":"6925.388"},{"FILE":"3175135","MEAN_ELEMENT_THEORY":"SGP4","OBJECT_TYPE":"PAYLOAD","NORAD_CAT_ID":"44746","APOAPSIS":"548.374","OBJECT_NAME":"STARLINK-1041","EPOCH":"2021-10-20T17:49:57.385920","ELEMENT_SET_NO":"999","MEAN_MOTION_DDOT":"0.0000000000000","ECCENTRICITY":"0.00016200","RCS_SIZE":"LARGE","BSTAR":"-0.00013841000000","TLE_LINE1":"1 44746U 19074AK  21293.74302530 -.00002342  00000-0 -13841-3 0  9990","MEAN_ANOMALY":"291.9979","SITE":"AFETR","CLASSIFICATION_TYPE":"U","REV_AT_EPOCH":"10689","TIME_SYSTEM":"UTC","RA_OF_ASC_NODE":"213.5371","LAUNCH_DATE":"2019-11-11","SEMIMAJOR_AXIS":"6925.387","ARG_OF_PERICENTER":"68.1182","COUNTRY_CODE":"US","MEAN_MOTION_DOT":"-0.00002342","PERIAPSIS":"546.130","EPHEMERIS_TYPE":"0","GP_ID":"187754648","TLE_LINE2":"2 44746  53.0539 213.5371 0001620  68.1182 291.9979 15.06387500106894","REF_FRAME":"TEME","DECAY_DATE":null,"INCLINATION":"53.0539","PERIOD":"95.593","CENTER_NAME":"EARTH","MEAN_MOTION":"15.06387500","OBJECT_ID":"2019-074AK"},{"OBJECT_ID":"2019-074AL","MEAN_MOTION":"15.06397154","PERIOD":"95.592","CENTER_NAME":"EARTH","INCLINATION":"53.0529","DECAY_DATE":null,"REF_FRAME":"TEME","TLE_LINE2":"2 44747  53.0529 214.6136 0001593  75.5859 284.5307 15.06397154106863","GP_ID":"187714480","EPHEMERIS_TYPE":"0","PERIAPSIS":"546.119","MEAN_MOTION_DOT":"-0.00001587","COUNTRY_CODE":"US","ARG_OF_PERICENTER":"75.5859","SEMIMAJOR_AXIS":"6925.357","LAUNCH_DATE":"2019-11-11","RA_OF_ASC_NODE":"214.6136","TIME_SYSTEM":"UTC","REV_AT_EPOCH":"10686","CLASSIFICATION_TYPE":"U","SITE":"AFETR","MEAN_ANOMALY":"284.5307","TLE_LINE1":"1 44747U 19074AL  21293.50711538 -.00001587  00000-0 -87649-4 0  9995","BSTAR":"-0.00008764900000","RCS_SIZE":"LARGE","ECCENTRICITY":"0.00015930","MEAN_MOTION_DDOT":"0.0000000000000","ELEMENT_SET_NO":"999","EPOCH":"2021-10-20T12:10:14.768832","APOAPSIS":"548.325","OBJECT_NAME":"STARLINK-1042","NORAD_CAT_ID":"44747","OBJECT_TYPE":"PAYLOAD","MEAN_ELEMENT_THEORY":"SGP4","FILE":"3174382"},{"MEAN_MOTION_DDOT":"0.0000000000000","ECCENTRICITY":"0.00016330","ELEMENT_SET_NO":"999","EPOCH":"2021-10-20T22:25:57.083808","OBJECT_NAME":"STARLINK-1043","APOAPSIS":"548.378","MEAN_ELEMENT_THEORY":"SGP4","FILE":"3175135","NORAD_CAT_ID":"44748","OBJECT_TYPE":"PAYLOAD","REV_AT_EPOCH":"10692","CLASSIFICATION_TYPE":"U","SITE":"AFETR","LAUNCH_DATE":"2019-11-11","RA_OF_ASC_NODE":"212.6851","TIME_SYSTEM":"UTC","BSTAR":"-0.00011919000000","RCS_SIZE":"LARGE","MEAN_ANOMALY":"290.1922","TLE_LINE1":"1 44748U 19074AM  21293.93468847 -.00002056  00000-0 -11919-3 0  9993","MEAN_MOTION_DOT":"-0.00002056","COUNTRY_CODE":"US","GP_ID":"187753647","EPHEMERIS_TYPE":"0","PERIAPSIS":"546.116","SEMIMAJOR_AXIS":"6925.382","ARG_OF_PERICENTER":"69.9242","CENTER_NAME":"EARTH","PERIOD":"95.593","OBJECT_ID":"2019-074AM","MEAN_MOTION":"15.06389109","INCLINATION":"53.0542","DECAY_DATE":null,"REF_FRAME":"TEME","TLE_LINE2":"2 44748  53.0542 212.6851 0001633  69.9242 290.1922 15.06389109106923"},{"SEMIMAJOR_AXIS":"6925.368","ARG_OF_PERICENTER":"68.5957","COUNTRY_CODE":"US","MEAN_MOTION_DOT":"-0.00001657","PERIAPSIS":"546.107","EPHEMERIS_TYPE":"0","GP_ID":"187712980","TLE_LINE2":"2 44751  53.0552 214.7142 0001626  68.5957 291.5206 15.06393688106853","REF_FRAME":"TEME","DECAY_DATE":null,"INCLINATION":"53.0552","CENTER_NAME":"EARTH","PERIOD":"95.593","MEAN_MOTION":"15.06393688","OBJECT_ID":"2019-074AQ","FILE":"3174382","MEAN_ELEMENT_THEORY":"SGP4","OBJECT_TYPE":"PAYLOAD","NORAD_CAT_ID":"44751","OBJECT_NAME":"STARLINK-1046","APOAPSIS":"548.359","EPOCH":"2021-10-20T11:38:25.139616","ELEMENT_SET_NO":"999","ECCENTRICITY":"0.00016260","MEAN_MOTION_DDOT":"0.0000000000000","RCS_SIZE":"LARGE","BSTAR":"-0.00009240400000","TLE_LINE1":"1 44751U 19074AQ  21293.48501319 -.00001657  00000-0 -92404-4 0  9994","MEAN_ANOMALY":"291.5206","SITE":"AFETR","CLASSIFICATION_TYPE":"U","REV_AT_EPOCH":"10685","TIME_SYSTEM":"UTC","RA_OF_ASC_NODE":"214.7142","LAUNCH_DATE":"2019-11-11"}];
